{
    "links": {
        "self": "http://www.neowsapp.com/rest/v1/neo/3840887?api_key=iIulBulltgU6a56xZRHN4H3l9WmuAYTsLGpBGhQ2"
    },
    "id": "3840887",
    "neo_reference_id": "3840887",
    "name": "(2019 GW5)",
    "designation": "2019 GW5",
    "nasa_jpl_url": "http://ssd.jpl.nasa.gov/sbdb.cgi?sstr=3840887",
    "absolute_magnitude_h": 26.7,
    "estimated_diameter": {
        "kilometers": {
            "estimated_diameter_min": 0.0121494041,
            "estimated_diameter_max": 0.0271668934
        },
        "meters": {
            "estimated_diameter_min": 12.14940408,
            "estimated_diameter_max": 27.1668934089
        },
        "miles": {
            "estimated_diameter_min": 0.0075492874,
            "estimated_diameter_max": 0.0168807197
        },
        "feet": {
            "estimated_diameter_min": 39.8602508817,
            "estimated_diameter_max": 89.1302305717
        }
    },
    "is_potentially_hazardous_asteroid": false,
    "close_approach_data": [
        {
            "close_approach_date": "2019-04-03",
            "close_approach_date_full": "2019-Apr-03 08:31",
            "epoch_date_close_approach": 1554280260000,
            "relative_velocity": {
                "kilometers_per_second": "6.7423567172",
                "kilometers_per_hour": "24272.4841818545",
                "miles_per_hour": "15081.977740664"
            },
            "miss_distance": {
                "astronomical": "0.0243719822",
                "lunar": "9.4807010758",
                "kilometers": "3645996.624797914",
                "miles": "2265517.2492186532"
            },
            "orbiting_body": "Earth"
        },
        {
            "close_approach_date": "2024-04-23",
            "close_approach_date_full": "2024-Apr-23 06:15",
            "epoch_date_close_approach": 1713852900000,
            "relative_velocity": {
                "kilometers_per_second": "11.5874451609",
                "kilometers_per_hour": "41714.8025792461",
                "miles_per_hour": "25919.956080421"
            },
            "miss_distance": {
                "astronomical": "0.2039469613",
                "lunar": "79.3353679457",
                "kilometers": "30510031.003452431",
                "miles": "18958054.1688923078"
            },
            "orbiting_body": "Earth"
        }
    ],
    "orbital_data": {
        "orbit_id": "3",
        "orbit_determination_date": "2019-04-13 07:39:04",
        "first_observation_date": "2019-04-08",
        "last_observation_date": "2019-04-13",
        "data_arc_in_days": 5,
        "observations_used": 37,
        "orbit_uncertainty": "7",
        "minimum_orbit_intersection": ".0235289",
        "jupiter_tisserand_invariant": "4.667",
        "epoch_osculation": "2459000.5",
        "eccentricity": ".2969594401382344",
        "semi_major_axis": "1.411925138177062",
        "inclination": "9.202225043637817",
        "ascending_node_longitude": "198.0906801530408",
        "orbital_period": "612.796015391407",
        "perihelion_distance": ".9926406396269021",
        "perihelion_argument": "327.4970081435542",
        "aphelion_distance": "1.831209636727221",
        "perihelion_time": "2459164.850854267730",
        "mean_anomaly": "263.4486092430089",
        "mean_motion": ".5874711828373421",
        "equinox": "J2000",
        "orbit_class": {
            "orbit_class_type": "APO",
            "orbit_class_description": "Near-Earth asteroid orbits which cross the Earth’s orbit similar to that of 1862 Apollo",
            "orbit_class_range": "a (semi-major axis) > 1.0 AU; q (perihelion) < 1.017 AU"
        }
    },
    "is_sentry_object": false
}